KUIPER-00167            
1 65780U 25217U   25328.50002315  .00035136  00000+0  18566-2 0  9994
2 65780  51.8755 154.5594 0010728 277.8592 349.4460 15.15124298  3348
KUIPER-00168            
1 65781U 25217V   25327.77784228  .00025812  00000+0  67414-3 0  9990
2 65781  51.8698 155.6662 0002447 181.7379 178.3601 15.38617112  9134
KUIPER-00169            
1 65782U 25217W   25327.87040340  .00040346  00000+0  10619-2 0  9995
2 65782  51.8693 155.5317 0003057 256.2736 103.7911 15.38151099  9143
KUIPER-00170            
1 65783U 25217X   25328.50002315 -.01048926  00000+0 -34063-1 0  9990
2 65783  51.8671 152.9603 0006336 288.9081  78.4092 15.34058227  5528
KUIPER-00171            
1 65784U 25217Y   25327.80116686  .00145527  00000+0  13710-2 0  9999
2 65784  51.8573 152.0961 0008126 289.8503  70.1619 15.66066077  9183
KUIPER-00172            
1 65785U 25217Z   25327.85471241  .00051047  00000+0  13232-2 0  9998
2 65785  51.8705 155.4328 0002730 266.9090  93.1585 15.38515524  9145
KUIPER-00173            
1 65786U 25217AA  25327.86400900  .00024092  00000+0  63878-3 0  9996
2 65786  51.8683 155.4844 0002847 240.6675 119.4027 15.38191994  9145
KUIPER-00174            
1 65787U 25217AB  25327.78365931  .00022688  00000+0  59686-3 0  9993
2 65787  51.8704 155.7005 0003981 201.1228 158.9595 15.38467886  9131
